{"spkid": "50587894", "covariance": {"epoch": "2458454.5", "labels": ["e", "q", "tp", "node", "peri", "i"], "elements": [{"label": "e", "sigma": 2.98440600514261e-07, "name": "e", "title": "eccentricity", "value": ".7757504039068149", "units": null}, {"sigma": 6.95405915145615e-07, "name": "q", "title": "perihelion distance", "value": ".510078826851071", "units": "au", "label": "q"}, {"sigma": 0.000121252291907644, "name": "tp", "value": "2458322.148687993234", "title": "time of perihelion passage", "units": "TDB", "label": "tp"}, {"label": "node", "name": "om", "sigma": 0.000209187231092463, "units": "deg", "value": "236.0963377351325", "title": "longitude of the ascending node"}, {"label": "peri", "title": "argument of perihelion", "value": "65.88066287213213", "units": "deg", "sigma": 0.000207747281149357, "name": "w"}, {"title": "inclination", "value": "1.263386979382954", "units": "deg", "name": "i", "sigma": 6.99440358055991e-06, "label": "i"}], "data": [["8.906679203531271E-14", "-2.075372651677287E-13", "3.610551017469177E-11", "1.212450123505128E-11", "1.02413751260675E-11", "4.760938644396906E-13"], ["-2.075372651677287E-13", "4.835893868195099E-13", "-8.413324668680407E-11", "-2.824573524741712E-11", "-2.387005928042883E-11", "-1.109263972712958E-12"], ["3.610551017469177E-11", "-8.413324668680407E-11", "1.470211829285644E-8", "5.045103656813142E-9", "4.05011238208501E-9", "1.993515364739481E-10"], ["1.212450123505128E-11", "-2.824573524741712E-11", "5.045103656813142E-9", "4.375929765213159E-8", "-4.064147356490302E-8", "-1.119073166510021E-9"], ["1.02413751260675E-11", "-2.387005928042883E-11", "4.05011238208501E-9", "-4.064147356490302E-8", "4.315893282494978E-8", "1.241479463885068E-9"], ["4.760938644396906E-13", "-1.109263972712958E-12", "1.993515364739481E-10", "-1.119073166510021E-9", "1.241479463885068E-9", "4.89216814477493E-11"]]}, "elements": [{"units": null, "value": ".7753680767591923", "title": "eccentricity", "sigma": "2.9866E-7", "name": "e", "label": "e"}, {"label": "a", "units": "au", "title": "semi-major axis", "value": "2.279500337309728", "name": "a", "sigma": "7.326E-8"}, {"label": "q", "sigma": "6.972E-7", "name": "q", "value": ".512048544797954", "title": "perihelion distance", "units": "au"}, {"name": "i", "sigma": "6.9816E-6", "units": "deg", "value": "1.262673539257812", "title": "inclination; angle with respect to x-y ecliptic plane", "label": "i"}, {"units": "deg", "title": "longitude of the ascending node", "value": "235.6386191210572", "name": "om", "sigma": ".00020834", "label": "node"}, {"label": "peri", "units": "deg", "title": "argument of perihelion", "value": "66.38103062794579", "sigma": ".00020716", "name": "w"}, {"label": "M", "sigma": "5.3851E-6", "name": "ma", "units": "deg", "title": "mean anomaly", "value": "106.7754633952817"}, {"sigma": "7.1122E-6", "name": "tp", "units": "TDB", "title": "time of perihelion passage", "value": "2460827.656237275580", "label": "tp"}, {"units": "d", "value": "1257.065530906628", "title": "sidereal orbital period", "sigma": "6.0601E-5", "name": "per", "label": "period"}, {"label": "n", "units": "deg/d", "title": "mean motion", "value": ".2863812515329719", "sigma": "1.3806E-8", "name": "n"}, {"units": "au", "value": "4.046952129821501", "title": "aphelion distance", "sigma": "1.3006E-7", "name": "ad", "label": "Q"}], "epoch": "2461200.5"}